{"type": "FeatureCollection", "features": [ {"type": "Feature", "properties": {"norad_id": 40664, "name": "SKY MEXICO-1", "group": "intelsat", "lat": -0.034877880560998005, "lon": -129.76246891067206, "alt_km": 35776.979375760486, "timestamp": "2025-12-02T15:49:06.850940+00:00", "meta": {"OBJECT_NAME": "SKY MEXICO-1", "OBJECT_ID": "2015-026B", "EPOCH": "2025-12-02T04:54:21.818880", "MEAN_MOTION": 1.00270937, "ECCENTRICITY": 0.00026585, "INCLINATION": 0.0115, "RA_OF_ASC_NODE": 310.0076, "ARG_OF_PERICENTER": 313.8749, "MEAN_ANOMALY": 162.2655, "EPHEMERIS_TYPE": 0, "CLASSIFICATION_TYPE": "U", "NORAD_CAT_ID": 40664, "ELEMENT_SET_NO": 999, "REV_AT_EPOCH": 3847, "BSTAR": 0, "MEAN_MOTION_DOT": -2.14e-06, "MEAN_MOTION_DDOT": 0}, "tle": {"line1": "1 40664U 15026B   25336.20441920 -.00000214  00000+0  00000+0 0  9991", "line2": "2 40664   0.0115 310.0076 0002658 313.8749 162.2655  1.00270937 38470"}}, "geometry": {"type": "Point", "coordinates": [-129.76246891067206, -0.034877880560998005]}}, {"type": "Feature", "properties": {"norad_id": 40874, "name": "INTELSAT 34 (IS-34)", "group": "intelsat", "lat": -0.027724755808654765, "lon": -106.47812865689316, "alt_km": 35786.29183266543, "timestamp": "2025-12-02T15:49:06.850952+00:00", "meta": {"OBJECT_NAME": "INTELSAT 34 (IS-34)", "OBJECT_ID": "2015-039A", "EPOCH": "2025-12-01T18:41:08.783232", "MEAN_MOTION": 1.00270951, "ECCENTRICITY": 8.486e-05, "INCLINATION": 0.0157, "RA_OF_ASC_NODE": 294.6924, "ARG_OF_PERICENTER": 230.7347, "MEAN_ANOMALY": 130.2562, "EPHEMERIS_TYPE": 0, "CLASSIFICATION_TYPE": "U", "NORAD_CAT_ID": 40874, "ELEMENT_SET_NO": 999, "REV_AT_EPOCH": 3764, "BSTAR": 0, "MEAN_MOTION_DOT": -2.64e-06, "MEAN_MOTION_DDOT": 0}, "tle": {"line1": "1 40874U 15039A   25335.77857388 -.00000264  00000+0  00000+0 0  9993", "line2": "2 40874   0.0157 294.6924 0000848 230.7347 130.2562  1.00270951 37644"}}, "geometry": {"type": "Point", "coordinates": [-106.47812865689316, -0.027724755808654765]}}, {"type": "Feature", "properties": {"norad_id": 41581, "name": "INTELSAT 31 (IS-31)", "group": "intelsat", "lat": -0.031179131161089245, "lon": -146.0474960135421, "alt_km": 35778.64156504939, "timestamp": "2025-12-02T15:49:06.850963+00:00", "meta": {"OBJECT_NAME": "INTELSAT 31 (IS-31)", "OBJECT_ID": "2016-035A", "EPOCH": "2025-12-02T03:03:32.131872", "MEAN_MOTION": 1.00269746, "ECCENTRICITY": 0.00019122, "INCLINATION": 0.0151, "RA_OF_ASC_NODE": 270.5944, "ARG_OF_PERICENTER": 309.5464, "MEAN_ANOMALY": 161.9273, "EPHEMERIS_TYPE": 0, "CLASSIFICATION_TYPE": "U", "NORAD_CAT_ID": 41581, "ELEMENT_SET_NO": 999, "REV_AT_EPOCH": 3470, "BSTAR": 0, "MEAN_MOTION_DOT": -1.3e-06, "MEAN_MOTION_DDOT": 0}, "tle": {"line1": "1 41581U 16035A   25336.12745523 -.00000130  00000+0  00000+0 0  9995", "line2": "2 41581   0.0151 270.5944 0001912 309.5464 161.9273  1.00269746 34701"}}, "geometry": {"type": "Point", "coordinates": [-146.0474960135421, -0.031179131161089245]}}, {"type": "Feature", "properties": {"norad_id": 41747, "name": "INTELSAT 36 (IS-36)", "group": "intelsat", "lat": 0.023593414100419385, "lon": 17.56131665184608, "alt_km": 35781.495647008334, "timestamp": "2025-12-02T15:49:06.850975+00:00", "meta": {"OBJECT_NAME": "INTELSAT 36 (IS-36)", "OBJECT_ID": "2016-053A", "EPOCH": "2025-12-01T21:50:38.752800", "MEAN_MOTION": 1.00278088, "ECCENTRICITY": 0.0001727, "INCLINATION": 0.0108, "RA_OF_ASC_NODE": 342.6383, "ARG_OF_PERICENTER": 327.7333, "MEAN_ANOMALY": 156.8269, "EPHEMERIS_TYPE": 0, "CLASSIFICATION_TYPE": "U", "NORAD_CAT_ID": 41747, "ELEMENT_SET_NO": 999, "REV_AT_EPOCH": 3397, "BSTAR": 0, "MEAN_MOTION_DOT": -5e-08, "MEAN_MOTION_DDOT": 0}, "tle": {"line1": "1 41747U 16053A   25335.91017075 -.00000005  00000+0  00000+0 0  9990", "line2": "2 41747   0.0108 342.6383 0001727 327.7333 156.8269  1.00278088 33971"}}, "geometry": {"type": "Point", "coordinates": [17.56131665184608, 0.023593414100419385]}}, {"type": "Feature", "properties": {"norad_id": 41945, "name": "INTELSAT 32E (IS-32E)", "group": "intelsat", "lat": -0.017583416537437283, "lon": -94.15569180168052, "alt_km": 35786.621879192135, "timestamp": "2025-12-02T15:49:06.850987+00:00", "meta": {"OBJECT_NAME": "INTELSAT 32E (IS-32E)", "OBJECT_ID": "2017-007B", "EPOCH": "2025-12-02T06:43:50.567232", "MEAN_MOTION": 1.00270114, "ECCENTRICITY": 9.69e-06, "INCLINATION": 0.0229, "RA_OF_ASC_NODE": 56.0737, "ARG_OF_PERICENTER": 303.4679, "MEAN_ANOMALY": 129.6429, "EPHEMERIS_TYPE": 0, "CLASSIFICATION_TYPE": "U", "NORAD_CAT_ID": 41945, "ELEMENT_SET_NO": 999, "REV_AT_EPOCH": 3225, "BSTAR": 0, "MEAN_MOTION_DOT": -2.48e-06, "MEAN_MOTION_DDOT": 0}, "tle": {"line1": "1 41945U 17007B   25336.28044638 -.00000248  00000+0  00000+0 0  9995", "line2": "2 41945   0.0229  56.0737 0000096 303.4679 129.6429  1.00270114 32254"}}, "geometry": {"type": "Point", "coordinates": [-94.15569180168052, -0.017583416537437283]}}, {"type": "Feature", "properties": {"norad_id": 42818, "name": "INTELSAT 35E (IS-35E)", "group": "intelsat", "lat": -0.025538015289690456, "lon": -85.4547758341622, "alt_km": 35777.22587373651, "timestamp": "2025-12-02T15:49:06.850998+00:00", "meta": {"OBJECT_NAME": "INTELSAT 35E (IS-35E)", "OBJECT_ID": "2017-041A", "EPOCH": "2025-12-02T05:03:37.666368", "MEAN_MOTION": 1.00271554, "ECCENTRICITY": 0.00022908, "INCLINATION": 0.0172, "RA_OF_ASC_NODE": 313.6715, "ARG_OF_PERICENTER": 298.407, "MEAN_ANOMALY": 220.6716, "EPHEMERIS_TYPE": 0, "CLASSIFICATION_TYPE": "U", "NORAD_CAT_ID": 42818, "ELEMENT_SET_NO": 999, "REV_AT_EPOCH": 3084, "BSTAR": 0, "MEAN_MOTION_DOT": -2.17e-06, "MEAN_MOTION_DDOT": 0}, "tle": {"line1": "1 42818U 17041A   25336.21085262 -.00000217  00000+0  00000+0 0  9990", "line2": "2 42818   0.0172 313.6715 0002290 298.4070 220.6716  1.00271554 30848"}}, "geometry": {"type": "Point", "coordinates": [-85.4547758341622, -0.025538015289690456]}}, {"type": "Feature", "properties": {"norad_id": 42950, "name": "INTELSAT 37E (IS-37E)", "group": "intelsat", "lat": -0.005205079783398454, "lon": -68.95176409847014, "alt_km": 35776.361471393044, "timestamp": "2025-12-02T15:49:06.851010+00:00", "meta": {"OBJECT_NAME": "INTELSAT 37E (IS-37E)", "OBJECT_ID": "2017-059A", "EPOCH": "2025-12-02T05:08:14.724384", "MEAN_MOTION": 1.00271005, "ECCENTRICITY": 0.00033917, "INCLINATION": 0.0123, "RA_OF_ASC_NODE": 291.1678, "ARG_OF_PERICENTER": 313.6848, "MEAN_ANOMALY": 245.5408, "EPHEMERIS_TYPE": 0, "CLASSIFICATION_TYPE": "U", "NORAD_CAT_ID": 42950, "ELEMENT_SET_NO": 999, "REV_AT_EPOCH": 3009, "BSTAR": 0, "MEAN_MOTION_DOT": -1.2e-06, "MEAN_MOTION_DDOT": 0}, "tle": {"line1": "1 42950U 17059A   25336.21405931 -.00000120  00000+0  00000+0 0  9998", "line2": "2 42950   0.0123 291.1678 0003391 313.6848 245.5408  1.00271005 30097"}}, "geometry": {"type": "Point", "coordinates": [-68.95176409847014, -0.005205079783398454]}}, {"type": "Feature", "properties": {"norad_id": 43632, "name": "AZERSPACE 2 (IS-38)", "group": "intelsat", "lat": 0.01022574905528362, "lon": -5.857534462291519, "alt_km": 35787.573061048846, "timestamp": "2025-12-02T15:49:06.851022+00:00", "meta": {"OBJECT_NAME": "AZERSPACE 2 (IS-38)", "OBJECT_ID": "2018-074A", "EPOCH": "2025-12-02T03:43:33.564576", "MEAN_MOTION": 1.00270954, "ECCENTRICITY": 0.00016795, "INCLINATION": 0.003, "RA_OF_ASC_NODE": 345.5003, "ARG_OF_PERICENTER": 267.9964, "MEAN_ANOMALY": 278.7706, "EPHEMERIS_TYPE": 0, "CLASSIFICATION_TYPE": "U", "NORAD_CAT_ID": 43632, "ELEMENT_SET_NO": 999, "REV_AT_EPOCH": 2647, "BSTAR": 0, "MEAN_MOTION_DOT": 1.57e-06, "MEAN_MOTION_DDOT": 0}, "tle": {"line1": "1 43632U 18074A   25336.15524959  .00000157  00000+0  00000+0 0  9998", "line2": "2 43632   0.0030 345.5003 0001679 267.9964 278.7706  1.00270954 26473"}}, "geometry": {"type": "Point", "coordinates": [-5.857534462291519, 0.01022574905528362]}}, {"type": "Feature", "properties": {"norad_id": 43633, "name": "HORIZONS-3E", "group": "intelsat", "lat": -0.013156604726451531, "lon": 118.02969513695939, "alt_km": 35790.04184905205, "timestamp": "2025-12-02T15:49:06.851034+00:00", "meta": {"OBJECT_NAME": "HORIZONS-3E", "OBJECT_ID": "2018-074B", "EPOCH": "2025-12-01T18:02:30.823296", "MEAN_MOTION": 1.00268041, "ECCENTRICITY": 7.078e-05, "INCLINATION": 0.0287, "RA_OF_ASC_NODE": 212.6289, "ARG_OF_PERICENTER": 75.528, "MEAN_ANOMALY": 222.3695, "EPHEMERIS_TYPE": 0, "CLASSIFICATION_TYPE": "U", "NORAD_CAT_ID": 43633, "ELEMENT_SET_NO": 999, "REV_AT_EPOCH": 2636, "BSTAR": 0, "MEAN_MOTION_DOT": -9e-08, "MEAN_MOTION_DDOT": 0}, "tle": {"line1": "1 43633U 18074B   25335.75174564 -.00000009  00000+0  00000+0 0  9994", "line2": "2 43633   0.0287 212.6289 0000707  75.5280 222.3695  1.00268041 26367"}}, "geometry": {"type": "Point", "coordinates": [118.02969513695939, -0.013156604726451531]}}, {"type": "Feature", "properties": {"norad_id": 44333, "name": "AT&T T-16", "group": "intelsat", "lat": -0.010060833027828384, "lon": -151.8400100861357, "alt_km": 35785.82208515998, "timestamp": "2025-12-02T15:49:06.851046+00:00", "meta": {"OBJECT_NAME": "AT&T T-16", "OBJECT_ID": "2019-034A", "EPOCH": "2025-12-02T04:44:39.482880", "MEAN_MOTION": 1.00267749, "ECCENTRICITY": 5.201e-05, "INCLINATION": 0.0259, "RA_OF_ASC_NODE": 61.9247, "ARG_OF_PERICENTER": 96.1901, "MEAN_ANOMALY": 243.5063, "EPHEMERIS_TYPE": 0, "CLASSIFICATION_TYPE": "U", "NORAD_CAT_ID": 44333, "ELEMENT_SET_NO": 999, "REV_AT_EPOCH": 2365, "BSTAR": 0, "MEAN_MOTION_DOT": -9.4e-07, "MEAN_MOTION_DDOT": 0}, "tle": {"line1": "1 44333U 19034A   25336.19767920 -.00000094  00000+0  00000+0 0  9996", "line2": "2 44333   0.0259  61.9247 0000520  96.1901 243.5063  1.00267749 23652"}}, "geometry": {"type": "Point", "coordinates": [-151.8400100861357, -0.010060833027828384]}}]}